NORAD_CAT_ID,OBJECT_NAME,OBJECT_TYPE,EPOCH,MEAN_MOTION,ECCENTRICITY,INCLINATION,RA_OF_ASC_NODE,ARG_OF_PERICENTER,MEAN_ANOMALY,BSTAR,MEAN_MOTION_DOT,MEAN_MOTION_DDOT,TLE_LINE0,TLE_LINE1,TLE_LINE2,SEMIMAJOR_AXIS,PERIOD,APOGEE,PERIGEE,DECAYED
53265.0,STARLINK-4097,PAYLOAD,2023-04-08 01:27:04,15.08852303,0.0001002,53.216,302.4055,87.9287,272.182,0.00024982,3.692e-05,0.0,0 STARLINK-4097,1 53265U 22086Z   23098.06046742  .00003692  00000-0  24982-3 0  9998,2 53265  53.2160 302.4055 0001002  87.9287 272.1820 15.08852303 39866,6917.843,95.437,540.401,539.015,0.0
53265.0,STARLINK-4097,PAYLOAD,2023-04-08 12:34:47,15.0883369,0.0001078,53.216,300.3239,90.9051,269.2064,2.4667e-05,1.05e-06,0.0,0 STARLINK-4097,1 53265U 22086Z   23098.52415829  .00000105  00000-0  24667-4 0  9992,2 53265  53.2160 300.3239 0001078  90.9051 269.2064 15.08833690 39936,6917.9,95.438,540.51,539.019,0.0
53265.0,STARLINK-4097,PAYLOAD,2023-04-09 14:00:57,15.08841234,0.0001038,53.2157,295.5658,92.0715,268.0396,0.00065515,0.00010155,0.0,0 STARLINK-4097,1 53265U 22086Z   23099.58399895  .00010155  00000-0  65515-3 0  9995,2 53265  53.2157 295.5658 0001038  92.0715 268.0396 15.08841234 40275,6917.877,95.437,540.46,539.024,0.0
53265.0,STARLINK-4097,PAYLOAD,2023-04-09 20:22:29,15.08848574,0.000109,53.2158,294.3762,91.8664,268.2453,0.0006115,9.46e-05,0.0,0 STARLINK-4097,1 53265U 22086Z   23099.84895731  .00009460  00000-0  61150-3 0  9992,2 53265  53.2158 294.3762 0001090  91.8664 268.2453 15.08848574 40312,6917.854,95.437,540.473,538.965,0.0
53265.0,STARLINK-4097,PAYLOAD,2023-04-09 21:57:53,15.08850141,0.0001076,53.2158,294.0787,90.6253,269.4862,0.00064321,9.966e-05,0.0,0 STARLINK-4097,1 53265U 22086Z   23099.91519690  .00009966  00000-0  64321-3 0  9991,2 53265  53.2158 294.0787 0001076  90.6253 269.4862 15.08850141 40142,6917.849,95.437,540.459,538.97,0.0
53265.0,STARLINK-4097,PAYLOAD,2023-04-10 05:54:48,15.0884025,0.0001063,53.2158,292.5918,81.184,278.9273,0.00020095,2.912e-05,0.0,0 STARLINK-4097,1 53265U 22086Z   23100.24639846  .00002912  00000-0  20095-3 0  9990,2 53265  53.2158 292.5918 0001063  81.1840 278.9273 15.08840250 40190,6917.88,95.438,540.48,539.009,0.0
53265.0,STARLINK-4097,PAYLOAD,2023-04-10 12:16:21,15.08845861,0.0001082,53.2155,291.4022,81.2924,278.8191,0.00046261,7.083e-05,0.0,0 STARLINK-4097,1 53265U 22086Z   23100.51135797  .00007083  00000-0  46261-3 0  9993,2 53265  53.2155 291.4022 0001082  81.2924 278.8191 15.08845861 40412,6917.862,95.437,540.476,538.979,0.0
53265.0,STARLINK-4097,PAYLOAD,2023-04-10 21:48:39,15.08855728,0.0001063,53.2157,289.6181,76.9305,283.1805,0.00074394,0.00011577,0.0,0 STARLINK-4097,1 53265U 22086Z   23100.90879503  .00011577  00000-0  74394-3 0  9997,2 53265  53.2157 289.6181 0001063  76.9305 283.1805 15.08855728 40472,6917.832,95.437,540.433,538.962,0.0
53265.0,STARLINK-4097,PAYLOAD,2023-04-10 23:24:02,15.08857826,0.0001078,53.2157,289.321,74.2023,285.9088,0.00076498,0.00011914,0.0,0 STARLINK-4097,1 53265U 22086Z   23100.97503424  .00011914  00000-0  76498-3 0  9992,2 53265  53.2157 289.3210 0001078  74.2023 285.9088 15.08857826 40302,6917.826,95.436,540.437,538.945,0.0
53265.0,STARLINK-4097,PAYLOAD,2023-04-11 12:07:08,15.08840414,0.000115,53.2155,286.9418,96.0282,264.0841,0.00016105,2.276e-05,0.0,0 STARLINK-4097,1 53265U 22086Z   23101.50495758  .00002276  00000-0  16105-3 0  9992,2 53265  53.2155 286.9418 0001150  96.0282 264.0841 15.08840414 40561,6917.879,95.438,540.54,538.949,0.0
53265.0,STARLINK-4097,PAYLOAD,2023-04-11 18:28:40,15.08843218,0.0001036,53.2155,285.7526,76.5554,283.5553,0.00041181,6.273e-05,0.0,0 STARLINK-4097,1 53265U 22086Z   23101.76991879  .00006273  00000-0  41181-3 0  9998,2 53265  53.2155 285.7526 0001036  76.5554 283.5553 15.08843218 40602,6917.871,95.437,540.452,539.019,0.0
53265.0,STARLINK-4097,PAYLOAD,2023-04-12 11:57:55,15.08836996,0.0001225,53.2149,282.481,89.8436,270.2696,0.0002549,3.771e-05,0.0,0 STARLINK-4097,1 53265U 22086Z   23102.49856183  .00003771  00000-0  25490-3 0  9992,2 53265  53.2149 282.4810 0001225  89.8436 270.2696 15.08836996 40539,6917.89,95.438,540.602,538.907,0.0
53265.0,STARLINK-4097,PAYLOAD,2023-04-13 05:27:09,15.08862169,0.0001421,53.2155,279.212,79.1056,281.0096,0.00071216,0.00011071,0.0,0 STARLINK-4097,1 53265U 22086Z   23103.22719381  .00011071  00000-0  71216-3 0  9991,2 53265  53.2155 279.2120 0001421  79.1056 281.0096 15.08862169 40829,6917.813,95.436,540.661,538.695,0.0
53265.0,STARLINK-4097,PAYLOAD,2023-04-13 18:10:14,15.08849379,0.0001351,53.2156,276.8328,91.2023,268.9124,0.00033492,5.048e-05,0.0,0 STARLINK-4097,1 53265U 22086Z   23103.75711756  .00005048  00000-0  33492-3 0  9998,2 53265  53.2156 276.8328 0001351  91.2023 268.9124 15.08849379 40727,6917.852,95.437,540.651,538.782,0.0
53265.0,STARLINK-4097,PAYLOAD,2023-04-14 11:39:29,15.08842115,0.0001365,53.2159,273.563,95.7437,264.3711,0.0001315,1.806e-05,0.0,0 STARLINK-4097,1 53265U 22086Z   23104.48575890  .00001806  00000-0  13150-3 0  9993,2 53265  53.2159 273.5630 0001365  95.7437 264.3711 15.08842115 41019,6917.874,95.437,540.683,538.795,0.0
53265.0,STARLINK-4097,PAYLOAD,2023-04-14 13:14:52,15.08843024,0.0001332,53.2153,273.2649,92.1724,267.9421,0.00011546,1.55e-05,0.0,0 STARLINK-4097,1 53265U 22086Z   23104.55199886  .00001550  00000-0  11546-3 0  9991,2 53265  53.2153 273.2649 0001332  92.1724 267.9421 15.08843024 40841,6917.871,95.437,540.658,538.815,0.0
53265.0,STARLINK-4097,PAYLOAD,2023-04-15 13:05:39,15.08841609,0.0001216,53.2163,268.8046,105.5676,254.5451,8.9348e-05,1.134e-05,0.0,0 STARLINK-4097,1 53265U 22086Z   23105.54559800  .00001134  00000-0  89348-4 0  9991,2 53265  53.2163 268.8046 0001216 105.5676 254.5451 15.08841609 41178,6917.875,95.437,540.582,538.899,0.0
53265.0,STARLINK-4097,PAYLOAD,2023-04-15 21:02:34,15.08855393,0.0001274,53.2157,267.3167,98.4315,261.6821,0.00032185,4.84e-05,0.0,0 STARLINK-4097,1 53265U 22086Z   23105.87679138  .00004840  00000-0  32185-3 0  9997,2 53265  53.2157 267.3167 0001274  98.4315 261.6821 15.08855393 41044,6917.833,95.437,540.58,538.817,0.0
53265.0,STARLINK-4097,PAYLOAD,2023-04-16 03:24:07,15.08835323,8.78e-05,53.2159,266.1295,92.795,267.3142,-7.7641e-05,-1.523e-05,0.0,0 STARLINK-4097,1 53265U 22086Z   23106.14175677 -.00001523  00000-0 -77641-4 0  9991,2 53265  53.2159 266.1295 0000878  92.7950 267.3142 15.08835323 41080,6917.895,95.438,540.367,539.152,0.0
53265.0,STARLINK-4097,PAYLOAD,2023-04-16 12:56:27,15.08829827,0.0001535,53.2177,264.3459,97.4398,262.6769,-0.00015909,-2.818e-05,0.0,0 STARLINK-4097,1 53265U 22086Z   23106.53920354 -.00002818  00000-0 -15909-3 0  9990,2 53265  53.2177 264.3459 0001535  97.4398 262.6769 15.08829827 41323,6917.911,95.438,540.838,538.715,0.0
53265.0,STARLINK-4097,PAYLOAD,2023-04-16 19:17:59,15.0883186,0.0001451,53.2176,263.1568,98.5895,261.5261,-6.5362e-05,-1.328e-05,0.0,0 STARLINK-4097,1 53265U 22086Z   23106.80416467 -.00001328  00000-0 -65362-4 0  9999,2 53265  53.2176 263.1568 0001451  98.5895 261.5261 15.08831860 41360,6917.905,95.438,540.774,538.766,0.0
53265.0,STARLINK-4097,PAYLOAD,2023-04-17 09:36:28,15.08843574,0.0001241,53.2167,260.4783,83.2467,276.8666,0.00030105,4.507e-05,0.0,0 STARLINK-4097,1 53265U 22086Z   23107.40032418  .00004507  00000-0  30105-3 0  9992,2 53265  53.2167 260.4783 0001241  83.2467 276.8666 15.08843574 41275,6917.869,95.437,540.593,538.876,0.0
53265.0,STARLINK-4097,PAYLOAD,2023-04-17 14:22:37,15.08846727,0.0001231,53.2167,259.5861,78.6778,281.4353,0.00069077,0.00010725,0.0,0 STARLINK-4097,1 53265U 22086Z   23107.59904592  .00010725  00000-0  69077-3 0  9992,2 53265  53.2167 259.5861 0001231  78.6778 281.4353 15.08846727 41484,6917.86,95.437,540.576,538.873,0.0
53265.0,STARLINK-4097,PAYLOAD,2023-04-17 19:08:46,15.08863757,0.000126,53.2155,258.6929,67.9995,292.1131,0.0012982,0.00020447,0.0,0 STARLINK-4097,1 53265U 22086Z   23107.79776304  .00020447  00000-0  12982-2 0  9996,2 53265  53.2155 258.6929 0001260  67.9995 292.1131 15.08863757 41519,6917.808,95.436,540.544,538.801,0.0
53265.0,STARLINK-4097,PAYLOAD,2023-04-18 09:27:15,15.08853986,0.0001717,53.2161,256.0186,69.4177,290.6999,0.00086833,0.00013564,0.0,0 STARLINK-4097,1 53265U 22086Z   23108.39392447  .00013564  00000-0  86833-3 0  9994,2 53265  53.2161 256.0186 0001717  69.4177 290.6999 15.08853986 41607,6917.838,95.437,540.89,538.515,0.0
53265.0,STARLINK-4097,PAYLOAD,2023-04-18 14:13:24,15.08851567,0.0001474,53.2158,255.1247,70.5121,289.603,0.000514,7.904e-05,0.0,0 STARLINK-4097,1 53265U 22086Z   23108.59264343  .00007904  00000-0  51400-3 0  9992,2 53265  53.2158 255.1247 0001474  70.5121 289.6030 15.08851567 41453,6917.845,95.437,540.73,538.69,0.0
53265.0,STARLINK-4097,PAYLOAD,2023-04-18 18:59:33,15.08852076,0.0001411,53.2155,254.2319,69.4676,290.6468,0.00048044,7.369e-05,0.0,0 STARLINK-4097,1 53265U 22086Z   23108.79136195  .00007369  00000-0  48044-3 0  9992,2 53265  53.2155 254.2319 0001411  69.4676 290.6468 15.08852076 41669,6917.843,95.437,540.685,538.732,0.0
53265.0,STARLINK-4097,PAYLOAD,2023-04-19 02:56:29,15.08846119,0.0001045,53.2153,252.7452,74.5751,285.5356,0.00038005,5.767e-05,0.0,0 STARLINK-4097,1 53265U 22086Z   23109.12256159  .00005767  00000-0  38005-3 0  9999,2 53265  53.2153 252.7452 0001045  74.5751 285.5356 15.08846119 41538,6917.862,95.437,540.45,539.004,0.0
53265.0,STARLINK-4097,PAYLOAD,2023-04-19 09:18:02,15.08844716,0.0001367,53.2153,251.5555,79.9352,280.1795,0.00046956,7.194e-05,0.0,0 STARLINK-4097,1 53265U 22086Z   23109.38752376  .00007194  00000-0  46956-3 0  9999,2 53265  53.2153 251.5555 0001367  79.9352 280.1795 15.08844716 41755,6917.866,95.437,540.677,538.785,0.0
53265.0,STARLINK-4097,PAYLOAD,2023-04-19 15:39:34,15.08847331,0.0001255,53.2157,250.3654,80.7613,279.3521,0.00053975,8.314e-05,0.0,0 STARLINK-4097,1 53265U 22086Z   23109.65248334  .00008314  00000-0  53975-3 0  9997,2 53265  53.2157 250.3654 0001255  80.7613 279.3521 15.08847331 41799,6917.858,95.437,540.591,538.855,0.0
